[{"OBJECT_NAME":"STARLINK-3085","OBJECT_ID":"2021-082AC","EPOCH":"2026-03-09T22:37:55.126560","MEAN_MOTION":14.98328842,"ECCENTRICITY":0.00023031,"INCLINATION":69.999,"RA_OF_ASC_NODE":253.8076,"ARG_OF_PERICENTER":261.0432,"MEAN_ANOMALY":99.0466,"EPHEMERIS_TYPE":0,"CLASSIFICATION_TYPE":"U","NORAD_CAT_ID":49156,"ELEMENT_SET_NO":999,"REV_AT_EPOCH":24808,"BSTAR":1.6089864e-5,"MEAN_MOTION_DOT":9.9e-7,"MEAN_MOTION_DDOT":0},{"OBJECT_NAME":"NOAA 16 DEB","OBJECT_ID":"2000-055HK","EPOCH":"2026-03-09T11:22:55.184448","MEAN_MOTION":14.96713123,"ECCENTRICITY":0.00044813,"INCLINATION":98.9091,"RA_OF_ASC_NODE":257.3123,"ARG_OF_PERICENTER":226.904,"MEAN_ANOMALY":133.1803,"EPHEMERIS_TYPE":0,"CLASSIFICATION_TYPE":"U","NORAD_CAT_ID":41307,"ELEMENT_SET_NO":999,"REV_AT_EPOCH":53055,"BSTAR":0.0073865996,"MEAN_MOTION_DOT":0.00085329,"MEAN_MOTION_DDOT":0}]
